0 ASC 1
1 15994U 85076C   13282.26360876 -.00000226  00000-0  10000-3 0  6361
2 15994 014.1199 027.0816 0000913 347.6706 012.3272 01.00296415 71547
0 ASC 1
1 15994U 85076C   13287.24863093 -.00000237  00000-0  10000-3 0  6376
2 15994 014.1257 027.0243 0001222 359.6798 000.3083 01.00295227 71596
0 ASC 1
1 15994U 85076C   13289.24265226 -.00000238  00000-0  10000-3 0  6384
2 15994 014.1283 027.0014 0001447 357.2427 002.7348 01.00294716 71618
0 ASC 1
1 15994U 85076C   13290.23969538  .00000000  00000-0  10000-3 0  6401
2 15994 014.1301 026.9901 0001175 297.2652 062.7029 01.00290142 71625
0 ASC 1
1 15994U 85076C   13292.23371299 -.00000237  00000-0  10000-3 0  6395
2 15994 014.1324 026.9672 0001393 351.0112 008.9533 01.00293956 71647
0 ASC 1
1 15994U 85076C   13293.23075045 -.00000236  00000-0  10000-3 0  6407
2 15994 014.1339 026.9560 0001337 342.1531 017.8104 01.00293705 71659
0 ASC 1
1 15994U 85076C   13295.22482697 -.00000233  00000-0  10000-3 0  6411
2 15994 014.1369 026.9337 0001327 321.5149 038.4495 01.00293257 71675
